# From MPEC 2022-CN4
P/2021 R5 (Rankin),e,7.8546,219.9594,167.3779,4.793922,0.0939005,0.30688805,13.0349,05/31.0/2022,2000,g 12.0,4.0
# From MPEC 2021-W31
P/2021 R6 (Groeller),e,34.9270,176.1143,220.7381,6.273624,0.0627229,0.59317876,13.2398,05/31.0/2022,2000,g 14.5,4.0
# From MPEC 2022-C56
C/2021 R7 (PANSTARRS),e,158.8526,170.1453,140.2190,1290,0.0000213,0.99562128,0.0000,04/16.5090/2021,2000,g 10.5,4.0
# From MPEC 2021-Y10
P/2021 R8 (Sheppard),e,2.2034,167.0289,190.7643,3.016906,0.1880881,0.29363306,44.3080,05/31.0/2022,2000,g 18.5,4.0
# From MPEC 2022-H30
C/2021 S1 (ATLAS),h,02/28.8620/2022,52.0868,299.8750,148.1798,1.001117,6.119204,2000,7.0,4.0
# From MPEC 2022-J42
C/2021 S3 (PANSTARRS),e,58.5387,215.6349,6.9038,5691,0.0000023,0.99976823,0.0000,02/14.8180/2024,2000,g  5.5,4.0
# From MPEC 2022-ED3
C/2021 S4 (Tsuchinshan),e,17.4776,5.4945,72.7387,163.2407,0.0004726,0.95900275,359.7260,05/31.0/2022,2000,g  6.5,4.0
# From MPEC 2022-GA9
C/2021 T1 (Lemmon),e,140.3514,56.8339,51.5166,1297,0.0000211,0.99764179,0.0000,10/14.0605/2021,2000,g 12.5,4.0
# From MPEC 2022-ED3
C/2021 T2 (Fuls),h,06/07.8910/2022,117.5301,223.2322,263.5915,1.000209,1.247700,2000,12.0,4.0
# From MPEC 2022-ED3
C/2021 T4 (Lemmon),e,160.7546,257.7946,329.7849,11335,0.0000008,0.99986928,0.0000,07/31.5264/2023,2000,g  7.5,4.0
# From MPEC 2022-ED3
P/2021 U1 (Wierzchos),e,30.5592,246.7885,145.0569,8.513401,0.0396780,0.71279057,9.6017,05/31.0/2022,2000,g 14.5,4.0
# From MPEC 2022-C56
P/2021 U3 (Attard-Maury),e,69.9607,75.1115,335.2150,4.192003,0.1148343,0.54989227,25.0492,05/31.0/2022,2000,g 15.5,4.0
# From MPEC 2021-W31
C/2021 U4 (Leonard),e,152.8772,241.8130,237.2773,44.72244,0.0032955,0.96003463,0.5275,05/31.0/2022,2000,g 17.0,4.0
# From MPEC 2022-K19
C/2021 U5 (Catalina),e,39.0503,182.7549,321.4673,217.1248,0.0003081,0.98911573,0.0000,01/26.6022/2022,2000,g 13.0,4.0
# From MPEC 2022-CN4
C/2021 V1 (Rankin),e,71.4520,207.6524,195.1124,652.2278,0.0000592,0.99537978,0.0000,04/30.3918/2022,2000,g 13.0,4.0
# From MPEC 2022-HC2
P/2021 V2 (Fuls),e,12.6948,232.2903,259.8312,9.044060,0.0362376,0.61338420,351.4669,05/31.0/2022,2000,g 10.0,4.0
# From MPEC 2022-J42
C/2021 X1 (Maury-Attard),h,05/27.4184/2023,140.1213,10.5827,334.6071,1.000031,3.234190,2000,7.0,4.0
# From MPEC 2022-ED3
A/2021 X2,h,07/08.1556/2022,137.1432,228.7982,193.2840,1.001260,2.994514,2000,16.0,2.0
# From MPEC 2022-K19
C/2021 Y1 (ATLAS),h,04/30.7134/2023,77.1860,244.7702,245.8077,1.000691,2.032698,2000,7.0,4.0
# From MPEC 2022-ED3
C/2022 A1 (Sarneczky),e,116.5215,285.5225,201.1963,826.8632,0.0000415,0.99848479,0.0000,01/31.1538/2022,2000,g 18.0,4.0
# From MPEC 2022-K19
C/2022 A2 (PANSTARRS),h,02/18.2443/2023,108.1486,171.5801,88.3609,1.000586,1.735295,2000,9.5,4.0
# From MPEC 2022-K19
C/2022 A3 (Lemmon-ATLAS),e,88.3580,325.4830,234.8556,993.3425,0.0000315,0.99627225,0.0000,09/28.8274/2023,2000,g  8.0,4.0
# From MPEC 2022-K19
P/2022 B1 (Wierzchos),e,10.9909,148.8500,325.4795,5.464583,0.0771558,0.65291227,7.3039,05/31.0/2022,2000,g 16.5,4.0
# From MPEC 2022-K19
A/2022 B3,e,132.0571,286.1857,150.6974,938.3242,0.0000343,0.99605855,0.0000,01/17.6453/2022,2000,g 16.5,2.0
# From MPEC 2022-GA9
C/2022 B4 (Bok),e,20.0442,340.6616,152.9526,388.3873,0.0001288,0.99644779,0.0000,01/29.8928/2022,2000,g 21.0,4.0
# From MPEC 2022-H04
P/2022 C1 (PANSTARRS),e,4.7620,113.1467,9.3652,7.216394,0.0508421,0.44771847,10.5493,05/31.0/2022,2000,g 12.0,4.0
# From MPEC 2022-K19
P/2022 C2 (PANSTARRS),e,9.9798,135.2747,89.3017,6.048253,0.0662612,0.44273286,355.5202,05/31.0/2022,2000,g 12.5,4.0
# From MPEC 2022-K19
P/2022 C3 (PANSTARRS),e,12.8157,139.0578,93.9839,9.652733,0.0328646,0.54684080,358.9628,05/31.0/2022,2000,g 11.5,4.0
# From MPEC 2022-K19
P/2022 D1 (PANSTARRS),e,44.0658,47.9630,88.7076,7.400952,0.0489523,0.54702373,13.5082,05/31.0/2022,2000,g 12.5,4.0
# From MPEC 2022-K19
C/2022 D2 (Kowalski),e,22.6546,312.4694,177.7900,366.5766,0.0001404,0.99575763,0.0000,03/27.5742/2022,2000,g 17.0,4.0
# From MPEC 2022-K19
C/2022 E2 (ATLAS),h,09/13.5588/2024,137.1461,125.3502,41.6599,1.001904,3.666228,2000,5.0,4.0
# From MPEC 2022-K19
C/2022 E3 (ZTF),h,01/12.7958/2023,109.1683,302.5535,145.8172,1.000207,1.112250,2000,7.5,4.0
# From MPEC 2022-K19
C/2022 F1 (ATLAS),e,57.9698,350.6376,278.3334,56005,0.0000001,0.99989336,0.0000,08/05.7236/2022,2000,g  7.0,4.0
# From MPEC 2022-K19
C/2022 F2 (NEOWISE),e,97.2894,58.6876,200.6146,23.59210,0.0086011,0.93282309,0.5897,05/31.0/2022,2000,g 14.5,4.0
# From MPEC 2022-J76
C/2022 H1 (PANSTARRS),e,49.8917,6.3815,246.2584,1146,0.0000254,0.99328791,0.0000,01/18.9966/2024,2000,g  6.0,4.0
# From MPEC 2022-K19
C/2022 J1 (Maury-Attard),e,105.9459,280.7253,305.7189,48.37713,0.0029292,0.96682191,0.2955,05/31.0/2022,2000,g 14.9,4.0
# From MPEC 2022-K80
A/2022 J2,e,149.0833,252.5084,133.3244,80.85917,0.0013555,0.97748073,0.0000,10/27.4130/2022,2000,g 17.0,2.0
# From  98, 1083
1P/Halley,e,162.2080,59.1090,112.0341,17.87187,0.0130451,0.96640104,172.8499,05/31.0/2022,2000,g  4.0,6.0
# From MPEC 2022-K19
2P/Encke,e,11.5311,334.3437,186.9757,2.219471,0.2980779,0.84873533,208.4940,05/31.0/2022,2000,g 11.5,6.0
# From MPEC 2022-K19
4P/Faye,e,8.0085,192.9272,207.0165,3.824800,0.1317623,0.57671937,34.8032,05/31.0/2022,2000,g  8.0,6.0
# From MPEC 2022-ED3
6P/d'Arrest,e,19.5122,138.9335,178.0835,3.497015,0.1507154,0.61266458,38.4707,05/31.0/2022,2000,g  7.5,16.0
# From MPEC 2021-Y10
7P/Pons-Winnecke,e,22.3651,93.3468,172.5726,3.411970,0.1563854,0.63849341,57.6939,05/31.0/2022,2000,g 10.0,6.0
# From MPEC 2022-HC2
8P/Tuttle,e,54.9137,270.1995,207.4837,5.705366,0.0723234,0.82018176,19.9810,05/31.0/2022,2000,g  8.0,8.0
# From MPEC 2022-K19
9P/Tempel,e,10.4699,68.7135,179.3580,3.146139,0.1766189,0.50915636,15.3725,05/31.0/2022,2000,g  5.5,10.0
# From MPEC 2022-HC2
10P/Tempel,e,12.0388,117.8110,195.5068,3.060936,0.1840445,0.53840531,79.6494,05/31.0/2022,2000,g  5.0,10.0
# From MPEC 2022-K19
11P/Tempel-Swift-LINEAR,e,14.4235,238.8881,167.9693,3.283785,0.1656312,0.57727757,91.2026,05/31.0/2022,2000,g 17.0,4.0
# From MPEC 2022-J42
12P/Pons-Brooks,e,74.1640,255.8104,198.9824,17.16582,0.0138582,0.95446387,350.4204,05/31.0/2022,2000,g  5.0,6.0
# From  27, 604
13P/Olbers,e,44.6174,85.9404,64.3953,16.77116,0.0143502,0.92992616,349.0636,05/31.0/2022,2000,g  5.0,6.0
# From MPEC 2021-F20
14P/Wolf,e,27.9229,202.0428,159.0635,4.258251,0.1121649,0.35717520,183.8657,05/31.0/2022,2000,g  5.5,12.0
# From MPEC 2022-ED3
15P/Finlay,e,6.7979,13.7096,347.8456,3.506887,0.1500795,0.71706637,48.2524,05/31.0/2022,2000,g 12.0,4.0
# From MPEC 2022-C56
16P/Brooks,e,3.0117,138.8697,245.2123,3.657542,0.1409029,0.48640366,57.4405,05/31.0/2022,2000,g  7.5,10.0
# From MPEC 2022-ED3
17P/Holmes,e,19.0316,326.6226,24.5154,3.636527,0.1421261,0.42762431,66.1006,05/31.0/2022,2000,g 10.0,6.0
# From MPEC 2022-K19
19P/Borrelly,e,29.3042,74.2458,351.9186,3.605312,0.1439759,0.63767973,17.0141,05/31.0/2022,2000,g  4.5,10.0
# From MPEC 2021-F20
21P/Giacobini-Zinner,e,32.0536,195.3449,172.8748,3.495325,0.1508248,0.71119242,204.7693,05/31.0/2022,2000,g 11.4,4.0
# From MPEC 2022-K19
22P/Kopff,e,4.7421,120.8310,163.0290,3.441131,0.1544018,0.54886417,11.4040,05/31.0/2022,2000,g  3.0,10.4
# From MPC 14747
23P/Brorsen-Metcalf,e,19.1731,312.2641,128.9403,16.94601,0.0141287,0.97176060,0.0000,08/05.3328/1989,2000,g 10.0,6.0
# From MPC110085
24P/Schaumasse,e,11.5110,78.4152,58.3918,4.054408,0.1207294,0.70777422,200.7135,05/31.0/2022,2000,g  6.5,14.0
# From MPEC 2022-K19
26P/Grigg-Skjellerup,e,22.4320,211.5388,2.1595,3.014799,0.1882853,0.64032424,252.0172,05/31.0/2022,2000,g 12.0,16.0
# From MPC 78188
27P/Crommelin,e,29.2877,250.6377,195.8949,9.182499,0.0354212,0.91864021,140.4307,05/31.0/2022,2000,g 12.0,8.0
# From MPEC 2022-F14
28P/Neujmin,e,14.3121,346.3317,347.4346,6.977935,0.0534704,0.77371983,23.8010,05/31.0/2022,2000,g  8.5,6.0
# From MPEC 2022-K19
29P/Schwassmann-Wachmann,e,9.3658,312.3856,50.1875,6.043749,0.0663353,0.04482938,76.0879,05/31.0/2022,2000,g  4.0,4.0
# From MPEC 2022-K19
30P/Reinmuth,e,8.1058,117.8427,9.5313,3.718670,0.1374430,0.51857385,248.9209,05/31.0/2022,2000,g  9.5,6.0
# From MPEC 2021-F20
31P/Schwassmann-Wachmann,e,4.5477,114.1070,17.9998,4.236875,0.1130149,0.19214369,120.0364,05/31.0/2022,2000,g 13.1,4.0
# From MPEC 2022-K19
32P/ComasSola,e,9.8805,55.0208,54.8862,4.533692,0.1021001,0.55816238,289.5077,05/31.0/2022,2000,g  6.5,8.0
# From MPEC 2013-O31
33P/Daniel,e,22.2957,66.3074,20.4903,4.086991,0.1192885,0.45164764,253.1224,05/31.0/2022,2000,g 10.0,12.0
# From  15, 452
35P/Herschel-Rigollet,e,65.282,356.738,28.955,28.5529,0.006460,0.9741718,0.000,01/21.4551/2092,2000,g  9.0,4.0
# From MPEC 2022-ED3
36P/Whipple,e,9.9525,181.8423,200.9535,4.135551,0.1171936,0.26908891,85.3761,05/31.0/2022,2000,g  8.5,6.0
# From MPEC 2021-F20
37P/Forbes,e,8.9550,314.5653,330.1192,3.461051,0.1530707,0.53340976,227.7533,05/31.0/2022,2000,g 13.8,4.0
# From MPEC 2018-S50
38P/Stephan-Oterma,e,18.3762,77.9323,359.4974,11.23551,0.0261707,0.85920457,33.9340,05/31.0/2022,2000,g  3.5,12.0
# From MPEC 2022-A21
39P/Oterma,e,1.5498,298.6377,97.9949,7.340669,0.0495565,0.22119543,341.3790,05/31.0/2022,2000,g  7.0,6.0
# From MPC100283
40P/Vaisala,e,11.4688,133.7723,47.3822,4.953894,0.0893890,0.62985566,246.8512,05/31.0/2022,2000,g  5.5,12.0
# From MPC105240
41P/Tuttle-Giacobini-Kresak,e,9.2208,140.9891,62.2170,3.088274,0.1816061,0.65996970,340.8562,05/31.0/2022,2000,g 10.0,16.0
# From MPC 94283
42P/Neujmin,e,3.9915,150.1747,147.2359,4.873322,0.0916150,0.58499574,238.7002,05/31.0/2022,2000,g 13.0,6.0
# From MPEC 2022-C56
43P/Wolf-Harrington,e,9.3333,244.0699,224.1041,4.318518,0.1098252,0.43528977,232.2077,05/31.0/2022,2000,g  8.0,6.0
# From MPEC 2021-TD0
44P/Reinmuth,e,5.8957,286.4616,58.0817,3.692549,0.1389040,0.42785649,5.2445,05/31.0/2022,2000,g  8.3,6.0
# From MPEC 2022-K19
45P/Honda-Mrkos-Pajdusakova,e,4.3228,87.7030,327.9072,3.054151,0.1846581,0.81756562,6.2874,05/31.0/2022,2000,g 13.5,8.0
# From MPEC 2021-O56
